[{"OBJECT_NAME":"STARLINK-1665","OBJECT_ID":"2020-062AH","EPOCH":"2026-03-10T00:00:02.999808","MEAN_MOTION":15.63814753,"ECCENTRICITY":0.00018219,"INCLINATION":53.043,"RA_OF_ASC_NODE":335.34,"ARG_OF_PERICENTER":283.6331,"MEAN_ANOMALY":290.7925,"EPHEMERIS_TYPE":0,"CLASSIFICATION_TYPE":"U","NORAD_CAT_ID":46356,"ELEMENT_SET_NO":999,"REV_AT_EPOCH":589,"BSTAR":0.0017153048,"MEAN_MOTION_DOT":0.0016659,"MEAN_MOTION_DDOT":0},{"OBJECT_NAME":"LILIUM-1","OBJECT_ID":"2023-185F","EPOCH":"2026-03-09T22:28:56.680896","MEAN_MOTION":15.66968582,"ECCENTRICITY":0.00057383,"INCLINATION":97.3316,"RA_OF_ASC_NODE":147.7332,"ARG_OF_PERICENTER":186.5847,"MEAN_ANOMALY":173.5339,"EPHEMERIS_TYPE":0,"CLASSIFICATION_TYPE":"U","NORAD_CAT_ID":58467,"ELEMENT_SET_NO":999,"REV_AT_EPOCH":12691,"BSTAR":0.0013028575,"MEAN_MOTION_DOT":0.00140249,"MEAN_MOTION_DDOT":0}]
